NORAD_CAT_ID,OBJECT_NAME,OBJECT_TYPE,EPOCH,MEAN_MOTION,ECCENTRICITY,INCLINATION,RA_OF_ASC_NODE,ARG_OF_PERICENTER,MEAN_ANOMALY,BSTAR,MEAN_MOTION_DOT,MEAN_MOTION_DDOT,TLE_LINE0,TLE_LINE1,TLE_LINE2,SEMIMAJOR_AXIS,PERIOD,APOGEE,PERIGEE,DECAYED
53801.0,STARLINK-4715,PAYLOAD,2024-02-18 03:29:14,15.08837545,0.0001737,53.2192,33.8622,84.6451,275.474,8.8687e-05,1.124e-05,0.0,0 STARLINK-4715,1 53801U 22111AE  24049.14531037  .00001124  00000-0  88687-4 0  9996,2 53801  53.2192  33.8622 0001737  84.6451 275.4740 15.08837545 79697,6917.888,95.438,540.955,538.551,0.0
53801.0,STARLINK-4715,PAYLOAD,2024-02-18 08:15:23,15.08849402,0.0001416,53.2177,32.9672,89.1551,270.9604,0.00014443,2.012e-05,0.0,0 STARLINK-4715,1 53801U 22111AE  24049.34402008  .00002012  00000-0  14443-3 0  9998,2 53801  53.2177  32.9672 0001416  89.1551 270.9604 15.08849402 79728,6917.852,95.437,540.696,538.737,0.0
53801.0,STARLINK-4715,PAYLOAD,2024-02-18 16:12:19,15.08848084,0.0001532,53.2189,31.4812,90.1856,269.9311,5.8289e-05,6.4e-06,0.0,0 STARLINK-4715,1 53801U 22111AE  24049.67522192  .00000640  00000-0  58289-4 0  9993,2 53801  53.2189  31.4812 0001532  90.1856 269.9311 15.08848084 80584,6917.856,95.437,540.78,538.661,0.0
53801.0,STARLINK-4715,PAYLOAD,2024-02-19 03:20:01,15.08847756,0.000152,53.2188,29.4009,85.7708,274.3457,4.1348e-05,3.7e-06,0.0,0 STARLINK-4715,1 53801U 22111AE  24050.13890318  .00000370  00000-0  41348-4 0  9992,2 53801  53.2188  29.4009 0001520  85.7708 274.3457 15.08847756 79844,6917.857,95.437,540.773,538.67,0.0
53801.0,STARLINK-4715,PAYLOAD,2024-02-19 08:06:09,15.08854539,0.0001443,53.2182,28.5051,99.2039,260.9116,9.3567e-05,1.202e-05,0.0,0 STARLINK-4715,1 53801U 22111AE  24050.33761527  .00001202  00000-0  93567-4 0  9998,2 53801  53.2182  28.5051 0001443  99.2039 260.9116 15.08854539 79879,6917.836,95.437,540.699,538.703,0.0
53801.0,STARLINK-4715,PAYLOAD,2024-02-19 16:03:07,15.08834447,0.000192,53.2196,27.0221,78.0248,282.0959,-1.269e-06,-3.08e-06,0.0,0 STARLINK-4715,1 53801U 22111AE  24050.66883287 -.00000308  00000-0 -12690-5 0  9999,2 53801  53.2196  27.0221 0001920  78.0248 282.0959 15.08834447 79926,6917.897,95.438,541.091,538.434,0.0
53801.0,STARLINK-4715,PAYLOAD,2024-02-19 22:24:39,15.08832796,0.0001742,53.2166,25.8313,83.7886,276.3304,1.1786e-05,-1.01e-06,0.0,0 STARLINK-4715,1 53801U 22111AE  24050.93379309 -.00000101  00000-0  11786-4 0  9998,2 53801  53.2166  25.8313 0001742  83.7886 276.3304 15.08832796 80774,6917.902,95.438,540.973,538.562,0.0
53801.0,STARLINK-4715,PAYLOAD,2024-02-20 04:46:12,15.08840228,0.0001531,53.2191,24.6411,93.1593,266.9575,-5.1689e-05,-1.111e-05,0.0,0 STARLINK-4715,1 53801U 22111AE  24051.19875075 -.00001111  00000-0 -51689-4 0  9997,2 53801  53.2191  24.6411 0001531  93.1593 266.9575 15.08840228 80813,6917.88,95.438,540.804,538.686,0.0
53801.0,STARLINK-4715,PAYLOAD,2024-02-20 22:15:26,15.08840642,0.0001382,53.219,21.3704,100.2127,259.9021,5.3548e-05,5.64e-06,0.0,0 STARLINK-4715,1 53801U 22111AE  24051.92738708  .00000564  00000-0  53548-4 0  9994,2 53801  53.2190  21.3704 0001382 100.2127 259.9021 15.08840642 80928,6917.878,95.438,540.699,538.787,0.0
53801.0,STARLINK-4715,PAYLOAD,2024-02-21 03:01:34,15.08859129,0.0001788,53.2195,20.4751,116.6115,243.5061,0.00016752,2.38e-05,0.0,0 STARLINK-4715,1 53801U 22111AE  24052.12609171  .00002380  00000-0  16752-3 0  9991,2 53801  53.2195  20.4751 0001788 116.6115 243.5061 15.08859129 80140,6917.822,95.436,540.924,538.45,0.0
53801.0,STARLINK-4715,PAYLOAD,2024-02-21 22:06:13,15.08835129,8.26e-05,53.2191,16.9114,78.2682,281.8403,0.00013117,1.8e-05,0.0,0 STARLINK-4715,1 53801U 22111AE  24052.92098904  .00001800  00000-0  13117-3 0  9993,2 53801  53.2191  16.9114 0000826  78.2682 281.8403 15.08835129 81075,6917.895,95.438,540.332,539.189,0.0
53801.0,STARLINK-4715,PAYLOAD,2024-02-22 04:27:45,15.0883706,0.0001325,53.2191,15.7229,100.8203,259.2939,0.00012453,1.694e-05,0.0,0 STARLINK-4715,1 53801U 22111AE  24053.18594897  .00001694  00000-0  12453-3 0  9997,2 53801  53.2191  15.7229 0001325 100.8203 259.2939 15.08837060 80309,6917.889,95.438,540.671,538.838,0.0
53801.0,STARLINK-4715,PAYLOAD,2024-02-22 14:00:04,15.08839645,0.0001254,53.2192,13.9392,87.1608,272.9528,6.4867e-05,7.45e-06,0.0,0 STARLINK-4715,1 53801U 22111AE  24053.58338958  .00000745  00000-0  64867-4 0  9998,2 53801  53.2192  13.9392 0001254  87.1608 272.9528 15.08839645 81171,6917.881,95.438,540.614,538.879,0.0
53801.0,STARLINK-4715,PAYLOAD,2024-02-23 05:53:56,15.08846097,0.0001347,53.2201,10.9677,102.1222,257.9921,-3.2993e-05,-8.13e-06,0.0,0 STARLINK-4715,1 53801U 22111AE  24054.24578809 -.00000813  00000-0 -32993-4 0  9996,2 53801  53.2201  10.9677 0001347 102.1222 257.9921 15.08846097 80468,6917.862,95.437,540.659,538.795,0.0
53801.0,STARLINK-4715,PAYLOAD,2024-02-23 13:50:51,15.08845658,0.0001473,53.2203,9.4791,98.4158,261.7001,-9.4937e-05,-1.799e-05,0.0,0 STARLINK-4715,1 53801U 22111AE  24054.57698867 -.00001799  00000-0 -94937-4 0  9999,2 53801  53.2203   9.4791 0001473  98.4158 261.7001 15.08845658 81325,6917.863,95.437,540.747,538.709,0.0
53801.0,STARLINK-4715,PAYLOAD,2024-02-24 04:09:20,15.0883844,0.0001344,53.2201,6.8015,106.2583,253.8557,7.7966e-05,9.53e-06,0.0,0 STARLINK-4715,1 53801U 22111AE  24055.17315209  .00000953  00000-0  77966-4 0  9994,2 53801  53.2201   6.8015 0001344 106.2583 253.8557 15.08838440 80609,6917.885,95.438,540.68,538.82,0.0
53801.0,STARLINK-4715,PAYLOAD,2024-02-24 05:44:43,15.08844072,0.000139,53.2196,6.5066,102.8013,257.3134,0.00013195,1.813e-05,0.0,0 STARLINK-4715,1 53801U 22111AE  24055.23938842  .00001813  00000-0  13195-3 0  9994,2 53801  53.2196   6.5066 0001390 102.8013 257.3134 15.08844072 81425,6917.868,95.437,540.695,538.771,0.0
53801.0,STARLINK-4715,PAYLOAD,2024-02-24 20:03:12,15.08833126,0.0001416,53.22,3.8275,128.5876,231.5243,8.8276e-05,1.117e-05,0.0,0 STARLINK-4715,1 53801U 22111AE  24055.83555661  .00001117  00000-0  88276-4 0  9994,2 53801  53.2200   3.8275 0001416 128.5876 231.5243 15.08833126 80707,6917.901,95.438,540.746,538.787,0.0
53801.0,STARLINK-4715,PAYLOAD,2024-02-25 05:35:29,15.08861549,0.0001327,53.221,2.0402,124.8323,235.2794,0.00026052,3.863e-05,0.0,0 STARLINK-4715,1 53801U 22111AE  24056.23297464  .00003863  00000-0  26052-3 0  9996,2 53801  53.2210   2.0402 0001327 124.8323 235.2794 15.08861549 80766,6917.815,95.436,540.598,538.762,0.0
53801.0,STARLINK-4715,PAYLOAD,2024-02-25 13:32:26,15.08840922,0.0001605,53.2216,0.5542,85.1353,274.9822,9.0113e-05,1.146e-05,0.0,0 STARLINK-4715,1 53801U 22111AE  24056.56419310  .00001146  00000-0  90113-4 0  9990,2 53801  53.2216   0.5542 0001605  85.1353 274.9822 15.08840922 81621,6917.878,95.437,540.853,538.632,0.0
53801.0,STARLINK-4715,PAYLOAD,2024-02-25 19:53:58,15.08841065,0.0001807,53.2183,359.3688,84.725,275.3948,8.7336e-05,1.102e-05,0.0,0 STARLINK-4715,1 53801U 22111AE  24056.82915448  .00001102  00000-0  87336-4 0  9997,2 53801  53.2183 359.3688 0001807  84.7250 275.3948 15.08841065 80852,6917.877,95.437,540.992,538.492,0.0
53801.0,STARLINK-4715,PAYLOAD,2024-02-26 05:26:16,15.08854254,0.0001261,53.22,357.5812,123.4612,236.65,9.3354e-05,1.199e-05,0.0,0 STARLINK-4715,1 53801U 22111AE  24057.22658226  .00001199  00000-0  93354-4 0  9993,2 53801  53.2200 357.5812 0001261 123.4612 236.6500 15.08854254 80913,6917.837,95.437,540.574,538.829,0.0
53801.0,STARLINK-4715,PAYLOAD,2024-02-26 19:44:46,15.08841772,0.0001029,53.2202,354.9046,145.2944,214.8116,-0.00014154,-2.54e-05,0.0,0 STARLINK-4715,1 53801U 22111AE  24057.82275819 -.00002540  00000-0 -14154-3 0  9995,2 53801  53.2202 354.9046 0001029 145.2944 214.8116 15.08841772 81000,6917.875,95.437,540.452,539.028,0.0
53801.0,STARLINK-4715,PAYLOAD,2024-02-27 02:06:18,15.08848473,0.0001574,53.2197,353.7169,126.1536,233.9602,-5.2432e-05,-1.123e-05,0.0,0 STARLINK-4715,1 53801U 22111AE  24058.08771114 -.00001123  00000-0 -52432-4 0  9991,2 53801  53.2197 353.7169 0001574 126.1536 233.9602 15.08848473 81047,6917.854,95.437,540.808,538.631,0.0
53801.0,STARLINK-4715,PAYLOAD,2024-02-27 13:14:00,15.08844658,0.0001422,53.2186,351.6364,94.0425,266.073,-6.5197e-05,-1.326e-05,0.0,0 STARLINK-4715,1 53801U 22111AE  24058.55139216 -.00001326  00000-0 -65197-4 0  9991,2 53801  53.2186 351.6364 0001422  94.0425 266.0730 15.08844658 81928,6917.866,95.437,540.715,538.747,0.0
53801.0,STARLINK-4715,PAYLOAD,2024-02-27 22:46:19,15.08836893,0.0001335,53.2181,349.8517,93.2088,266.9057,0.0001793,2.567e-05,0.0,0 STARLINK-4715,1 53801U 22111AE  24058.94883747  .00002567  00000-0  17930-3 0  9996,2 53801  53.2181 349.8517 0001335  93.2088 266.9057 15.08836893 81980,6917.89,95.438,540.678,538.831,0.0
53801.0,STARLINK-4715,PAYLOAD,2024-02-28 00:21:42,15.08835193,0.0001283,53.2191,349.5546,91.0473,269.0666,0.00016983,2.416e-05,0.0,0 STARLINK-4715,1 53801U 22111AE  24059.01507635  .00002416  00000-0  16983-3 0  9994,2 53801  53.2191 349.5546 0001283  91.0473 269.0666 15.08835193 81180,6917.895,95.438,540.648,538.873,0.0
53801.0,STARLINK-4715,PAYLOAD,2024-02-28 05:07:51,15.08846317,0.0001402,53.2185,348.6593,108.3169,251.7976,4.7214e-05,4.64e-06,0.0,0 STARLINK-4715,1 53801U 22111AE  24059.21379063  .00000464  00000-0  47214-4 0  9991,2 53801  53.2185 348.6593 0001402 108.3169 251.7976 15.08846317 81218,6917.861,95.437,540.696,538.756,0.0
53801.0,STARLINK-4715,PAYLOAD,2024-02-28 22:37:06,15.08837748,0.0001642,53.2195,345.3866,122.4694,237.6457,3.1347e-06,-2.38e-06,0.0,0 STARLINK-4715,1 53801U 22111AE  24059.94243854 -.00000238  00000-0  31347-5 0  9990,2 53801  53.2195 345.3866 0001642 122.4694 237.6457 15.08837748 82139,6917.887,95.438,540.888,538.616,0.0
53801.0,STARLINK-4715,PAYLOAD,2024-02-29 01:47:53,15.08837271,0.000156,53.2194,344.7927,117.1418,242.9734,7.2086e-07,-2.77e-06,0.0,0 STARLINK-4715,1 53801U 22111AE  24060.07491914 -.00000277  00000-0  72086-6 0  9997,2 53801  53.2194 344.7927 0001560 117.1418 242.9734 15.08837271 81343,6917.889,95.438,540.833,538.675,0.0
